{
  "type": "FeatureCollection",
  "note": "Polygones = zones cliquables sur la carte-monde, coords pixel [x, y] origine haut-gauche (carte 6936x3864). Positions estimees a l'oeil depuis la carte source — a affiner via index.html?pick=1. id doit correspondre a une cle de regions.json.",
  "features": [
    {
      "type": "Feature",
      "properties": { "id": "seven_cities", "label": "Seven Cities" },
      "geometry": { "type": "Polygon", "coordinates": [[[1977, 347], [4006, 347], [4006, 1699], [1977, 1699], [1977, 347]]] }
    },
    {
      "type": "Feature",
      "properties": { "id": "genabackis", "label": "Genabackis" },
      "geometry": { "type": "Polygon", "coordinates": [[[4508, 381], [5132, 381], [5132, 1647], [4508, 1647], [4508, 381]]] }
    },
    {
      "type": "Feature",
      "properties": { "id": "quon_tali", "label": "Quon Tali" },
      "geometry": { "type": "Polygon", "coordinates": [[[3381, 1561], [4040, 1561], [4040, 1959], [3381, 1959], [3381, 1561]]] }
    },
    {
      "type": "Feature",
      "properties": { "id": "lether", "label": "Lether" },
      "geometry": { "type": "Polygon", "coordinates": [[[485, 2081], [2306, 2081], [2306, 3312], [485, 3312], [485, 2081]]] }
    },
    {
      "type": "Feature",
      "properties": { "id": "malaz_isle", "label": "Malaz Island" },
      "geometry": { "type": "Polygon", "coordinates": [[[3901, 2012], [4092, 2012], [4092, 2150], [3901, 2150], [3901, 2012]]] }
    }
  ]
}
