{
  "type": "FeatureCollection",
  "note": "coordinates = pixel [x, y] origine haut-gauche (carte 10000x5571), anneau ferme (premier point = dernier). Contours estimes — affiner via #/?pick=1. Couleur derivee de empire/faction (leafletRenderers).",
  "features": [
    {
      "type": "Feature",
      "geometry": {
        "type": "Polygon",
        "coordinates": [[[4787, 2076], [5882, 2076], [5882, 3114], [4787, 3114], [4787, 2076]]]
      },
      "properties": { "name": "Empire Malazain — Quon Tali", "empire": "Empire Malazain", "faction": "Empire Malazain", "period": "vers 1160 BS", "placeholder": true }
    }
  ]
}
