{
  "type": "FeatureCollection",
  "note": "coordinates = pixel [x, y] origine haut-gauche (carte 10000x5571). Trace estime — affiner via #/?pick=1. route_type: campaign|trade (tirets, voir leafletRenderers).",
  "features": [
    {
      "type": "Feature",
      "geometry": {
        "type": "LineString",
        "coordinates": [[5421, 1096], [5248, 1153], [5133, 1269], [5190, 1384], [5255, 1492]]
      },
      "properties": { "name": "Chain of Dogs", "route_type": "campaign", "continent": "Seven Cities", "book": "Deadhouse Gates", "note": "Marche de Coltaine, de Hissar a Aren", "placeholder": true }
    }
  ]
}
